addressLine1,city,state,zipCode,wzipCode
118 ORR AVE,Cheswick,PA,15024,15235
121 WILSON AVE,Cheswick,PA,15024,15106
11329 ALTHEA RD,Penn Hills,PA,15235,15209
215 LEXINGTON CT,Carnegie,PA,15106,15236
123 SHOUP ST,Millvale,PA,15209,15202
4569 COUNTRY CLUB DR,Caste Village,PA,15236,15037
9 CLARION AVE,Bellvue,PA,15202,15024
625 DOUGLAS AVE,Elizabeth,PA,15037,15037
1421 MAGNOLIA DR,Castle Shannon,PA,15234,15202
1270 GROVE RD,Castle Shannon,PA,15234,15235
1340 GROVE RD,Castle Shannon,PA,15234,15106
1411 FAIRMONT ST,Cheswick,PA,15024,15209
617 DOUGLAS AVE,Elizabeth,PA,15037,15236
484 LINCOLN AVE,Bellvue,PA,15202,15202
1401 SHERMAN ST,Cheswick,PA,15024,15037
1301 FAIRMONT ST,Cheswick,PA,15024,15024
314 COWAN DR,Elizabeth,PA,15037,15037
227 S HOME AVE,Bellvue,PA,15202,15202
215 JEFFERSON AVE,Cheswick,PA,15024,15235
235 CASTLE RD,Castle Shannon,PA,15234,15106
231 CASTLE RD,Castle Shannon,PA,15234,15209
140 ELLSWORTH AVE,Elizabeth,PA,15037,15236
8 E ORCHARD AVE,Bellvue,PA,15202,15202
511 MONONGAHELA AVE,Elizabeth,PA,15037,15037
532 LINCOLN AVE,Bellvue,PA,15202,15024
427 FALLEN TIMBER RD,Elizabeth,PA,15037,15037
3368 SYCAMORE DR,Castle Shannon,PA,15234,15202
614 MONROE AVE,Bellvue,PA,15202,15235
625 MADISON AVE,Bellvue,PA,15202,15106
143 ELLSWORTH AVE,Elizabeth,PA,15037,15209
1401 HIGHLAND VILLA DR,Castle Shannon,PA,15234,15236
508 MONONGAHELA AVE,Elizabeth,PA,15037,15202
5464 WOLFE DR,Caste Village,PA,15236,15037
210 CASTLE RD,Castle Shannon,PA,15234,15024
170 ROBINSON ST,Oakland,PA,15213,15037
3147 TERRACE ST,Oakland,PA,15213,15202
233 S STARR AVE,Bellvue,PA,15202,15235
935 HOWDEN ST,Bellvue,PA,15202,15106
3378 MCROBERTS RD,Castle Shannon,PA,15234,15209
404 HIGH ST,Elizabeth,PA,15037,15236
214 ESSEN ST,Observatory,PA,15214,15202
567 LINCOLN AVE,Bellvue,PA,15202,15037
336 STONEYBROOKE DR,Cheswick,PA,15024,15024
171 ROBINSON ST,Oakland,PA,15213,15037
163 ROBINSON ST,Oakland,PA,15213,15202
204 SCHOOL AVE,Cheswick,PA,15024,15235
305 PILLOW AVE,Cheswick,PA,15024,15106
100 WYE OAK DR,Cheswick,PA,15024,15209
316 MONONGAHELA AVE,Elizabeth,PA,15037,15236
25 S JACKSON AVE,Bellvue,PA,15202,15202
2610 SUNSET AVE,Observatory,PA,15214,15235
179 ROBINSON ST,Oakland,PA,15213,15106
1204 FAIRMONT ST,Cheswick,PA,15024,15209
2714 PERRYSVILLE AVE,Observatory,PA,15214,15236
220 CASTLE RD,Castle Shannon,PA,15234,15202
1216 FAIRMONT ST,Cheswick,PA,15024,15037
508 HILL AVE,Cheswick,PA,15024,15024
1426 MAGNOLIA DR,Castle Shannon,PA,15234,15037
204 ROBINSON ST,Oakland,PA,15213,15202
300 MONONGAHELA AVE,Elizabeth,PA,15037,15235
172 CASTLE RD,Castle Shannon,PA,15234,15106
305 MONONGAHELA AVE,Elizabeth,PA,15037,15209
103 SHERWICK DR,Elizabeth,PA,15037,15236
11 E ORCHARD AVE,Bellvue,PA,15202,15202
603 PINE AVE,Cheswick,PA,15024,15037
937 JACKMAN AVE,Bellvue,PA,15202,15024
946 JACKMAN AVE,Bellvue,PA,15202,15037
3373 SYCAMORE DR,Castle Shannon,PA,15234,15202
151 ROBINSON ST,Oakland,PA,15213,15235
140 JEFFERSON AVE,Cheswick,PA,15024,15106
532 MADISON AVE,Bellvue,PA,15202,15209
209 MCKEESPORT RD,Elizabeth,PA,15037,15236
606 CHURCH ST,Elizabeth,PA,15037,15202
2718 HAZELTON ST,Observatory,PA,15214,15037
2722 HAZELTON ST,Observatory,PA,15214,15024
1412 HIGHLAND VILLA DR,Castle Shannon,PA,15234,15037
249 STEWART ST,Elizabeth,PA,15037,15202
132 S HOME AVE,Bellvue,PA,15202,15235
929 HOWDEN ST,Bellvue,PA,15202,15106
3447 MCROBERTS RD,Castle Shannon,PA,15234,15209
184 MCKEESPORT RD,Elizabeth,PA,15037,15236
305 DOUGLAS AVE,Elizabeth,PA,15037,15202
210 COLTART AVE,Oakland,PA,15213,15037
3500 FORBES AVE,Oakland,PA,15213,15024
1310 GROVE RD,Castle Shannon,PA,15234,15037
313 CHURCH ST,Elizabeth,PA,15037,15202
1011 JACKMAN AVE,Bellvue,PA,15202,15235
607 PINE AVE,Cheswick,PA,15024,15106
1212 FAIRMONT ST,Cheswick,PA,15024,15209
24 S JACKSON AVE,Bellvue,PA,15202,15236
3369 SYCAMORE DR,Castle Shannon,PA,15234,15202
220 SCHOOL AVE,Cheswick,PA,15024,15037
601 MONROE AVE,Bellvue,PA,15202,15024
322 SEMPLE ST,Oakland,PA,15213,15037
103 HARRISON ST,Elizabeth,PA,15037,15202
931 HOWDEN ST,Bellvue,PA,15202,15235
320 MURRAYS LN,Castle Shannon,PA,15234,15106
200 WINCHESTER AVE,Cheswick,PA,15024,15209
217 HERRON AVE,Cheswick,PA,15024,15236
3504 5TH AVE,Oakland,PA,15213,15202
23 FLORIAN DR,Cheswick,PA,15024,15235
309 MEADOW ST,Cheswick,PA,15024,15106
1406 OAK DR,Castle Shannon,PA,15234,15209
933 HOWDEN ST,Bellvue,PA,15202,15236
4 MAPLE AVE,Elizabeth,PA,15037,15202
1001 SPRUCE ST,Cheswick,PA,15024,15037
106 SAXONWALD LN,Castle Shannon,PA,15234,15024
304 DOUGLAS AVE,Elizabeth,PA,15037,15037
3341 SPRING GARDEN RD,Allegheny,PA,15212,15202
626 MADISON AVE,Bellvue,PA,15202,15235
1311 SHERMAN ST,Cheswick,PA,15024,15106
534 LINCOLN AVE,Bellvue,PA,15202,15209
119 CLAY ST,Elizabeth,PA,15037,15236
137 ELLSWORTH AVE,Elizabeth,PA,15037,15202
303 MONONGAHELA AVE,Elizabeth,PA,15037,15037
334 STONEYBROOKE DR,Cheswick,PA,15024,15024
615 DOUGLAS AVE,Elizabeth,PA,15037,15037
158 ELLSWORTH AVE,Elizabeth,PA,15037,15202
411 DAWSON AVE,Bellvue,PA,15202,15235
102 N FREMONT AVE,Bellvue,PA,15202,15106
3402 MCROBERTS RD,Castle Shannon,PA,15234,15209
500 DOUGLAS AVE,Elizabeth,PA,15037,15236
134 CHERRY VALLEY RD,Pittsburgh,PA,15221,15202
143 RANA LN,Gibsonia,PA,15044,15037
155 RANA LN,Gibsonia,PA,15044,15024
1303 MCNEILLY AVE,South Hills,PA,15216,15037
233 ROSE CIR,Gibsonia,PA,15044,15202
140 CHERRY VALLEY RD,Pittsburgh,PA,15221,15235
318 FORESTWOOD DR,Gibsonia,PA,15044,15106
3 CHERRY VALLEY RD,Pittsburgh,PA,15221,15209
1249 MCNEILLY AVE,South Hills,PA,15216,15236
148 CHERRY VALLEY RD,Pittsburgh,PA,15221,15202
120 CHERRY VALLEY RD,Pittsburgh,PA,15221,15037
4217 EWALT RD,Gibsonia,PA,15044,15024
2590 TILBROOK RD,Monroeville,PA,15146,15037
421 VINEYARD DR,Gibsonia,PA,15044,15202
206 ROSE CIR,Gibsonia,PA,15044,15235
230 WYCHELM ST,Castle Shannon,PA,15234,15106
517 EDGEHILL DR,Gibsonia,PA,15044,15209
103 TARTAN RD,Gibsonia,PA,15044,15236
146 RANA LN,Gibsonia,PA,15044,15202
2348 MARBURY RD,Pittsburgh,PA,15221,15037
2334 PERRYSVILLE AVE,Observatory,PA,15214,15024
4117 BEN MILLER RD,Gibsonia,PA,15044,15037
900 LIMECREST RD,Pittsburgh,PA,15221,15202
110 BLACK FRIAR DR,Moon Township,PA,15108,15235
2212 OSGOOD ST,Observatory,PA,15214,15106
2411 MARBURY RD,Pittsburgh,PA,15221,15209
1713 EBEN ST,Brookline,PA,15226,15236
215 WESTMINSTER DR,Moon Township,PA,15108,15202
1645 EBEN ST,Brookline,PA,15226,15235
2104 MOUNTFORD AVE,Observatory,PA,15214,15106
216 SEABRIGHT ST,Observatory,PA,15214,15209
2412 MARBURY RD,Pittsburgh,PA,15221,15236
218 WIN RIDGE DR,Moon Township,PA,15108,15202
2310 MARBURY RD,Pittsburgh,PA,15221,15037
230 PINE DR,Moon Township,PA,15108,15024
231 PINE DR,Moon Township,PA,15108,15037
318 WESTBURY DR,Moon Township,PA,15108,15202
401 WESTBURY DR,Moon Township,PA,15108,15235
1256 MCNEILLY AVE,South Hills,PA,15216,15106
2404 MARBURY RD,Pittsburgh,PA,15221,15209
1240 MCNEILLY AVE,South Hills,PA,15216,15236
5604 UNIVERSITY BLVD,Moon Township,PA,15108,15202
2308 MARBURY RD,Pittsburgh,PA,15221,15037
304 SEABRIGHT ST,Observatory,PA,15214,15024
406 WESTBURY DR,Moon Township,PA,15108,15037
248 SEABRIGHT ST,Observatory,PA,15214,15202
107 CRABTREE DR,Moon Township,PA,15108,15235
127 WESTBURY DR,Moon Township,PA,15108,15106
103 WOODSIDE RD,Pittsburgh,PA,15221,15209
2037 BIGGS AVE,Observatory,PA,15214,15236
2424 GREENSBURG PIKE,Pittsburgh,PA,15221,15202
306 BRYCE LN,Elizabeth,PA,15037,15037
213 PILLOW AVE,Cheswick,PA,15024,15024
937 HOWDEN ST,Bellvue,PA,15202,15037
2718 GOSHEN ST,Observatory,PA,15214,15202
125 CLAY ST,Elizabeth,PA,15037,15235
4121 BEN MILLER RD,Gibsonia,PA,15044,15106
2266 GLENBURY ST,Castle Shannon,PA,15234,15209
312 WESTBURY DR,Moon Township,PA,15108,15236
1317 ARKANSAS AVE,South Hills,PA,15216,15202
1250 ILLINOIS AVE,South Hills,PA,15216,15037
137 RANA LN,Gibsonia,PA,15044,15024
248 SHAFER RD,Moon Township,PA,15108,15037
175 RANA LN,Gibsonia,PA,15044,15202
1221 MCNEILLY AVE,South Hills,PA,15216,15235
6 WOODSIDE RD,Pittsburgh,PA,15221,15106
5300 RICHLAND RD,Gibsonia,PA,15044,15209
417 CHAUTAUQUA ST,Observatory,PA,15214,15236
501 WOODSIDE RD,Pittsburgh,PA,15221,15202
1249 ARKANSAS AVE,South Hills,PA,15216,15037
2127 HOLYOKE ST,Observatory,PA,15214,15024
242 LANGLEY ST,Observatory,PA,15214,15037
329 VICTORIA DR,Monroeville,PA,15146,15202
4051 COOK RD,Gibsonia,PA,15044,15235
2580 PITCAIRN RD,Monroeville,PA,15146,15106
125 N JAMESTOWN RD,Moon Township,PA,15108,15209
217 WOODSIDE RD,Pittsburgh,PA,15221,15236
59 CRAIGHEAD ST,Mount Washington,PA,15211,15202
167 CRESCENT HILLS RD,Penn Hills,PA,15235,15235
448 SPRINGDALE DR,Penn Hills,PA,15235,15106
413 SPRINGDALE DR,Penn Hills,PA,15235,15209
11765 ALTHEA RD,Penn Hills,PA,15235,15236
456 SPRINGDALE DR,Penn Hills,PA,15235,15202
74 S 12TH ST,Carson,PA,15203,15037
1114 SARAH ST,Carson,PA,15203,15024
82 S 12TH ST,Carson,PA,15203,15037
106 VALEVIEW DR,Penn Hills,PA,15235,15202
11736 ALTHEA RD,Penn Hills,PA,15235,15235
324 POINTVIEW RD,Brentwood,PA,15227,15106
619 SPRINGDALE DR,Penn Hills,PA,15235,15209
447 IBERIA ST,Mount Washington,PA,15211,15236
161 CRESCENT HILLS RD,Penn Hills,PA,15235,15202
468 SPRINGDALE DR,Penn Hills,PA,15235,15037
58 CRAIGHEAD ST,Mount Washington,PA,15211,15024
616 SPRINGDALE DR,Penn Hills,PA,15235,15037
620 SPRINGDALE DR,Penn Hills,PA,15235,15202
420 SPRINGDALE DR,Penn Hills,PA,15235,15235
2285 PARKLYN ST,Castle Shannon,PA,15234,15106
172 N JAMESTOWN RD,Moon Township,PA,15108,15209
1222 ARKANSAS AVE,South Hills,PA,15216,15236
237 SEMPLE ST,Oakland,PA,15213,15202
309 TEECE AVE,Bellvue,PA,15202,15037
608 SHAFFER AVE,Elizabeth,PA,15037,15024
138 CLAY ST,Elizabeth,PA,15037,15037
3312 SPRING GARDEN RD,Allegheny,PA,15212,15202
251 MEYRAN AVE,Oakland,PA,15213,15235
1321 LINDEN ST,Cheswick,PA,15024,15106
240 MEYRAN AVE,Oakland,PA,15213,15209
239 SHAFER RD,Moon Township,PA,15108,15236
2640 PITCAIRN RD,Monroeville,PA,15146,15202
129 N JAMESTOWN RD,Moon Township,PA,15108,15037
1211 ARKANSAS AVE,South Hills,PA,15216,15024
2329 GROVELAND ST,Castle Shannon,PA,15234,15037
523 EDGEHILL DR,Gibsonia,PA,15044,15202
162 N JAMESTOWN RD,Moon Township,PA,15108,15235
2238 GROVELAND ST,Castle Shannon,PA,15234,15106
19 S JACKSON AVE,Bellvue,PA,15202,15209
603 MONROE AVE,Bellvue,PA,15202,15236
217 COLTART AVE,Oakland,PA,15213,15202
648 MONROE AVE,Bellvue,PA,15202,15037
502 OXFORD AVE,Elizabeth,PA,15037,15024
419 CHICAGO AVE,Elizabeth,PA,15037,15037
306 GRANT AVE,Carnegie,PA,15106,15202
323 WILCOX ST,Carnegie,PA,15106,15235
1133 BUTLER RD,Springdale,PA,15144,15106
436 IBERIA ST,Mount Washington,PA,15211,15209
445 SPRINGDALE DR,Penn Hills,PA,15235,15236
441 KATHLEEN ST,Mount Washington,PA,15211,15202
53 CRAIGHEAD ST,Mount Washington,PA,15211,15235
41 CRAIGHEAD ST,Mount Washington,PA,15211,15106
114 VALEVIEW DR,Penn Hills,PA,15235,15209
1536 LIME HOLLOW RD,Penn Hills,PA,15235,15236
1216 BUTLER RD,Springdale,PA,15144,15202
436 GRANDVIEW AVE,Pittsburgh,PA,15122,15037
443 E GARDEN RD,Brentwood,PA,15227,15024
351 DAILEY RD,Brentwood,PA,15227,15037
168 CAMBRIDGE DR,Harwick,PA,15049,15202
435 EUREKA ST,Mount Washington,PA,15211,15235
165 CAMBRIDGE DR,Harwick,PA,15049,15106
148 CAMBRIDGE DR,Harwick,PA,15049,15209
436 SPRINGDALE DR,Penn Hills,PA,15235,15236
171 CAMBRIDGE DR,Harwick,PA,15049,15202
530 GRANT AVENUE EXT,Pittsburgh,PA,15122,15037
438 RUXTON ST,Mount Washington,PA,15211,15024
13 CRAIGHEAD ST,Mount Washington,PA,15211,15037
414 GRANDVIEW AVE,Pittsburgh,PA,15122,15202
404 SPRINGDALE DR,Penn Hills,PA,15235,15235
1529 LIME HOLLOW RD,Penn Hills,PA,15235,15106
308 WESTBURY DR,Moon Township,PA,15108,15209
103 IDLEWORTH DR,Moon Township,PA,15108,15236
223 WYNGATE RD,Moon Township,PA,15108,15202
39 BARTON DR,Pittsburgh,PA,15221,15037
2220 BERNARD ST,Castle Shannon,PA,15234,15024
225 MACDUFF CT,Gibsonia,PA,15044,15037
2295 ELMHILL RD,Pittsburgh,PA,15221,15202
207 WESTMINSTER DR,Moon Township,PA,15108,15235
2347 GROVELAND ST,Castle Shannon,PA,15234,15106
2412 GREENSBURG PIKE,Pittsburgh,PA,15221,15209
229 WYNGATE RD,Moon Township,PA,15108,15236
211 WYNGATE RD,Moon Township,PA,15108,15202
2245 BERNARD ST,Castle Shannon,PA,15234,15037
115 RANA LN,Gibsonia,PA,15044,15024
2232 PARKLYN ST,Castle Shannon,PA,15234,15037
513 ARTHUR DR,Moon Township,PA,15108,15202
2300 OSGOOD ST,Observatory,PA,15214,15235
2219 OSGOOD ST,Observatory,PA,15214,15106
247 LAFAYETTE AVE,Observatory,PA,15214,15209
2035 BIGGS AVE,Observatory,PA,15214,15236
2416 MARBURY RD,Pittsburgh,PA,15221,15202
218 WESTMINSTER DR,Moon Township,PA,15108,15037
305 WESTBURY DR,Moon Township,PA,15108,15024
5294 RICHLAND RD,Gibsonia,PA,15044,15037
2250 GLENBURY ST,Castle Shannon,PA,15234,15202
2035 OSGOOD ST,Observatory,PA,15214,15235
2525 GREENSBURG PIKE,Pittsburgh,PA,15221,15106
2323 GROVELAND ST,Castle Shannon,PA,15234,15209
2037 OSGOOD ST,Observatory,PA,15214,15236
1207 MCNEILLY AVE,South Hills,PA,15216,15202
2338 GROVELAND ST,Castle Shannon,PA,15234,15235
2368 GROVELAND ST,Castle Shannon,PA,15234,15106
5303 RICHLAND RD,Gibsonia,PA,15044,15209
226 SEABRIGHT ST,Observatory,PA,15214,15236
4168 BEN MILLER RD,Gibsonia,PA,15044,15202
330 LAFAYETTE AVE,Observatory,PA,15214,15037
2327 MAPLE AVE,Observatory,PA,15214,15024
126 APPLEWOOD DR,Gibsonia,PA,15044,15037
216 WYNGATE RD,Moon Township,PA,15108,15202
70 GLENBURY ST,Castle Shannon,PA,15234,15235
234 LARUE DR,Moon Township,PA,15108,15106
2297 ELMHILL RD,Pittsburgh,PA,15221,15209
2280 ELMHILL RD,Pittsburgh,PA,15221,15236
130 WALCOTT DR,Gibsonia,PA,15044,15202
29 WOODSIDE RD,Pittsburgh,PA,15221,15037
353 LAFAYETTE AVE,Observatory,PA,15214,15024
133 WALCOTT DR,Gibsonia,PA,15044,15037
233 SEABRIGHT ST,Observatory,PA,15214,15202
206 WOODSIDE RD,Pittsburgh,PA,15221,15235
509 ARTHUR DR,Moon Township,PA,15108,15106
304 LAFAYETTE AVE,Observatory,PA,15214,15209
2320 MAPLE AVE,Observatory,PA,15214,15236
2306 MARBURY RD,Pittsburgh,PA,15221,15202
419 VINEYARD DR,Gibsonia,PA,15044,15037
516 SHERWOOD RD,Pittsburgh,PA,15221,15024
4118 BEN MILLER RD,Gibsonia,PA,15044,15037
1010 BRADDOCK RD,Pittsburgh,PA,15221,15202
32 BRYN MAWR RD,Pittsburgh,PA,15221,15235
163 RANA LN,Gibsonia,PA,15044,15106
145 RANA LN,Gibsonia,PA,15044,15209
1663 EBEN ST,Brookline,PA,15226,15236
2331 MARBURY RD,Pittsburgh,PA,15221,15202
401 VINEYARD DR,Gibsonia,PA,15044,15037
2238 FEDERAL STREET EXT,Observatory,PA,15214,15024
2404 GREENSBURG PIKE,Pittsburgh,PA,15221,15037
347 LAFAYETTE AVE,Observatory,PA,15214,15202
123 WALCOTT DR,Gibsonia,PA,15044,15235
2507 GREENSBURG PIKE,Pittsburgh,PA,15221,15106
33 WOODSIDE RD,Pittsburgh,PA,15221,15209
240 SEABRIGHT ST,Observatory,PA,15214,15236
4991 UNIVERSITY BLVD,Moon Township,PA,15108,15202
2550 GREENSBURG PIKE,Pittsburgh,PA,15221,15037
360 PYNCHON ST,Allegheny,PA,15212,15024
2416 GREENSBURG PIKE,Pittsburgh,PA,15221,15037
253 LAFAYETTE AVE,Observatory,PA,15214,15202
2417 MARBURY RD,Pittsburgh,PA,15221,15235
124 WESTBURY DR,Moon Township,PA,15108,15106
117 BLACK FRIAR DR,Moon Township,PA,15108,15209
2114 MOUNTFORD AVE,Observatory,PA,15214,15236
296 SHAFER RD,Moon Township,PA,15108,15202
5070 UNIVERSITY BLVD,Moon Township,PA,15108,15235
135 WYNGATE RD,Moon Township,PA,15108,15106
128 APPLEWOOD DR,Gibsonia,PA,15044,15209
110 MELROSE AVE,Observatory,PA,15214,15236
221 WESTMINSTER DR,Moon Township,PA,15108,15202
2344 MARBURY RD,Pittsburgh,PA,15221,15037
306 WESTBURY DR,Moon Township,PA,15108,15024
86 GLENBURY ST,Castle Shannon,PA,15234,15037
204 ARNOLD AVE,McKeesport,PA,15132,15202
212 ARNOLD AVE,McKeesport,PA,15132,15235
72 S 12TH ST,Carson,PA,15203,15106
610 SPRINGDALE DR,Penn Hills,PA,15235,15209
11275 AZALEA DR,Penn Hills,PA,15235,15236
320 POINTVIEW RD,Brentwood,PA,15227,15202
57 CRAIGHEAD ST,Mount Washington,PA,15211,15037
440 DAILEY RD,Brentwood,PA,15227,15024
445 DAILEY RD,Brentwood,PA,15227,15037
11744 ALTHEA RD,Penn Hills,PA,15235,15202
433 SPRINGDALE DR,Penn Hills,PA,15235,15235
318 POINTVIEW RD,Brentwood,PA,15227,15106
455 E GARDEN RD,Brentwood,PA,15227,15209
37 N 4TH ST,Duquesne,PA,15110,15236
22 N 4TH ST,Duquesne,PA,15110,15202
530 E GARDEN RD,Brentwood,PA,15227,15037
316 POINTVIEW RD,Brentwood,PA,15227,15024
363 DAILEY RD,Brentwood,PA,15227,15037
448 IBERIA ST,Mount Washington,PA,15211,15202
52 CRAIGHEAD ST,Mount Washington,PA,15211,15235
506 GRANDVIEW AVE,Pittsburgh,PA,15122,15106
26 N 4TH ST,Duquesne,PA,15110,15209
32 N 4TH ST,Duquesne,PA,15110,15236
27 N 4TH ST,Duquesne,PA,15110,15202
144 CAMBRIDGE DR,Harwick,PA,15049,15037
444 RUXTON ST,Mount Washington,PA,15211,15024
435 IBERIA ST,Mount Washington,PA,15211,15037
115 BUCKNELL DR,Springdale,PA,15144,15202
478 DAILEY RD,Brentwood,PA,15227,15235
12012 FRANKSTOWN RD,Penn Hills,PA,15235,15106
453 KATHLEEN ST,Mount Washington,PA,15211,15209
446 IBERIA ST,Mount Washington,PA,15211,15236
605 SPRINGDALE DR,Penn Hills,PA,15235,15202
27 CRAIGHEAD ST,Mount Washington,PA,15211,15037
118 VALEVIEW DR,Penn Hills,PA,15235,15024
165 CRESCENT HILLS RD,Penn Hills,PA,15235,15037
323 RADISSON RD,Brentwood,PA,15227,15202
56 POINTVIEW RD,Brentwood,PA,15227,15235
618 SPRINGDALE DR,Penn Hills,PA,15235,15106
405 GRANT AVE,Carnegie,PA,15106,15209
330 WILCOX ST,Carnegie,PA,15106,15236
312 GRANT AVE,Carnegie,PA,15106,15202
423 JUSTUS AVE,Carnegie,PA,15106,15235
25 SYCAMORE ST,Carnegie,PA,15106,15106
31 N 4TH ST,Duquesne,PA,15110,15209
11267 AZALEA DR,Penn Hills,PA,15235,15236
442 IBERIA ST,Mount Washington,PA,15211,15202
51 CRAIGHEAD ST,Mount Washington,PA,15211,15037
3719 WOODROW AVE,Brentwood,PA,15227,15024
430 DAILEY RD,Brentwood,PA,15227,15037
21 N 4TH ST,Duquesne,PA,15110,15202
54 CRAIGHEAD ST,Mount Washington,PA,15211,15235
141 POINTVIEW RD,Brentwood,PA,15227,15106
612 SPRINGDALE DR,Penn Hills,PA,15235,15209
328 MURRAYS LN,Castle Shannon,PA,15234,15236
211 PILLOW AVE,Cheswick,PA,15024,15202
575 LINCOLN AVE,Bellvue,PA,15202,15037
23 S SPRAGUE AVE,Bellvue,PA,15202,15024
160 ROBINSON ST,Oakland,PA,15213,15037
214 CASTLE RD,Castle Shannon,PA,15234,15202
3441 FORBES AVE,Oakland,PA,15213,15235
306 DOUGLAS AVE,Elizabeth,PA,15037,15106
234 MCKEE PL,Oakland,PA,15213,15209
332 STONEYBROOKE DR,Cheswick,PA,15024,15236
107 WYE OAK DR,Cheswick,PA,15024,15202
634 MADISON AVE,Bellvue,PA,15202,15037
3501 FORBES AVE,Oakland,PA,15213,15024
510 DOUGLAS AVE,Elizabeth,PA,15037,15037
103 WYE OAK DR,Cheswick,PA,15024,15202
3335 MARY PL,Castle Shannon,PA,15234,15235
3444 MCROBERTS RD,Castle Shannon,PA,15234,15106
308 MONONGAHELA AVE,Elizabeth,PA,15037,15209
204 COLTART AVE,Oakland,PA,15213,15236
1110 SPRUCE ST,Cheswick,PA,15024,15202
219 COLTART AVE,Oakland,PA,15213,15037
159 ROBINSON ST,Oakland,PA,15213,15024
602 MADISON AVE,Bellvue,PA,15202,15037
25 S SPRAGUE AVE,Bellvue,PA,15202,15202
110 WALCOTT DR,Gibsonia,PA,15044,15235
3506 GREENSBURG PIKE,Pittsburgh,PA,15221,15106
107 WALCOTT DR,Gibsonia,PA,15044,15209
512 EDGEHILL DR,Gibsonia,PA,15044,15236
115 WESTBURY DR,Moon Township,PA,15108,15202
206 WESTMINSTER DR,Moon Township,PA,15108,15037
314 FORESTWOOD DR,Gibsonia,PA,15044,15024
217 WIN RIDGE DR,Moon Township,PA,15108,15037
131 WESTBURY DR,Moon Township,PA,15108,15202
1753 EBEN ST,Brookline,PA,15226,15235
2228 PARKLYN ST,Castle Shannon,PA,15234,15106
1752 EBEN ST,Brookline,PA,15226,15209
105 CRABTREE DR,Moon Township,PA,15108,15236
223 WESTMINSTER DR,Moon Township,PA,15108,15202
279 SHAFER RD,Moon Township,PA,15108,15235
525 CHAUTAUQUA ST,Observatory,PA,15214,15106
2316 MARBURY RD,Pittsburgh,PA,15221,15209
105 WALCOTT DR,Gibsonia,PA,15044,15236
258 PEEKSKILL ST,Allegheny,PA,15212,15202
222 WIN RIDGE DR,Moon Township,PA,15108,15037
5465 WILLIAM FLYNN HWY,Gibsonia,PA,15044,15024
4160 BEN MILLER RD,Gibsonia,PA,15044,15037
228 SHAFER RD,Moon Township,PA,15108,15202
100 KREBS DR,Gibsonia,PA,15044,15235
2230 FEDERAL STREET EXT,Observatory,PA,15214,15106
254 PEEKSKILL ST,Allegheny,PA,15212,15209
5656 UNIVERSITY BLVD,Moon Township,PA,15108,15236
283 SHAFER RD,Moon Township,PA,15108,15202
2932 KNOWLSON AVE,Brookline,PA,15226,15037
220 WIN RIDGE DR,Moon Township,PA,15108,15024
125 WALCOTT DR,Gibsonia,PA,15044,15037
320 LAFAYETTE AVE,Observatory,PA,15214,15202
2026 OSGOOD ST,Observatory,PA,15214,15235
18 FOREST HILLS RD,Pittsburgh,PA,15221,15106
226 SHAFER RD,Moon Township,PA,15108,15209
1118 SARAH ST,Carson,PA,15203,15236
447 KATHLEEN ST,Mount Washington,PA,15211,15202
173 CRESCENT HILLS RD,Penn Hills,PA,15235,15037
33 CRAIGHEAD ST,Mount Washington,PA,15211,15024
613 SPRINGDALE DR,Penn Hills,PA,15235,15037
54 WINDSOR RD,Brentwood,PA,15227,15202
56 CRAIGHEAD ST,Mount Washington,PA,15211,15235
606 SPRINGDALE DR,Penn Hills,PA,15235,15106
409 SPRINGDALE DR,Penn Hills,PA,15235,15209
443 EUREKA ST,Mount Washington,PA,15211,15236
319 HAMILTON AVE,Duquesne,PA,15110,15202
12013 FRANKSTOWN RD,Penn Hills,PA,15235,15037
11256 AZALEA DR,Penn Hills,PA,15235,15024
1532 LIME HOLLOW RD,Penn Hills,PA,15235,15037
149 CAMBRIDGE DR,Harwick,PA,15049,15202
421 JUSTUS AVE,Carnegie,PA,15106,15235
361 POINTVIEW RD,Brentwood,PA,15227,15106
598 GRANDVIEW AVE,Pittsburgh,PA,15122,15209
358 POINTVIEW RD,Brentwood,PA,15227,15236
451 RUXTON ST,Mount Washington,PA,15211,15202
441 E GARDEN RD,Brentwood,PA,15227,15037
601 SPRINGDALE DR,Penn Hills,PA,15235,15024
172 CRESCENT HILLS RD,Penn Hills,PA,15235,15037
525 SPRINGDALE DR,Penn Hills,PA,15235,15202
218 POINTVIEW RD,Brentwood,PA,15227,15235
59 POINTVIEW RD,Brentwood,PA,15227,15106
326 WILCOX ST,Carnegie,PA,15106,15209
440 IBERIA ST,Mount Washington,PA,15211,15236
439 EUREKA ST,Mount Washington,PA,15211,15202
